{
  "type": "FeatureCollection",
  "features": [
    {
      "type": "Feature",
      "properties": {
        "norad_id": 55973,
        "name": "TIANMU-1 03",
        "group": "weather",
        "lat": 78.50152010353823,
        "lon": 6.192873611407576,
        "alt_km": 433.8134530602092,
        "timestamp": "2025-12-09T04:51:47.151765+00:00",
        "meta_object_name": "TIANMU-1 03",
        "meta_object_id": "2023-039A",
        "meta_epoch": "2025-12-08T20:38:35.308896",
        "meta_mean_motion": 15.40750757,
        "meta_eccentricity": 0.0004514,
        "meta_inclination": 97.5111,
        "meta_ra_of_asc_node": 145.4041,
        "meta_arg_of_pericenter": 72.1177,
        "meta_mean_anomaly": 288.0561,
        "meta_ephemeris_type": 0,
        "meta_classification_type": "U",
        "meta_norad_cat_id": 55973,
        "meta_element_set_no": 999,
        "meta_rev_at_epoch": 15146,
        "meta_bstar": 0.00052779,
        "meta_mean_motion_dot": 0.00021537,
        "meta_mean_motion_ddot": 0,
        "tle_line1": "1 55973U 23039A   25342.86013089  .00021537  00000+0  52779-3 0  9997",
        "tle_line2": "2 55973  97.5111 145.4041 0004514  72.1177 288.0561 15.40750757151461"
      },
      "geometry": {
        "type": "Point",
        "coordinates": [
          6.192873611407576,
          78.50152010353823
        ]
      }
    },
    {
      "type": "Feature",
      "properties": {
        "norad_id": 55974,
        "name": "TIANMU-1 04",
        "group": "weather",
        "lat": -28.27099268030463,
        "lon": -39.11692783263613,
        "alt_km": 451.59150734613377,
        "timestamp": "2025-12-09T04:51:47.151775+00:00",
        "meta_object_name": "TIANMU-1 04",
        "meta_object_id": "2023-039B",
        "meta_epoch": "2025-12-08T20:10:12.269856",
        "meta_mean_motion": 15.4108376,
        "meta_eccentricity": 0.0005179,
        "meta_inclination": 97.5044,
        "meta_ra_of_asc_node": 144.5764,
        "meta_arg_of_pericenter": 67.5905,
        "meta_mean_anomaly": 292.589,
        "meta_ephemeris_type": 0,
        "meta_classification_type": "U",
        "meta_norad_cat_id": 55974,
        "meta_element_set_no": 999,
        "meta_rev_at_epoch": 15146,
        "meta_bstar": 0.00051295,
        "meta_mean_motion_dot": 0.00021163,
        "meta_mean_motion_ddot": 0,
        "tle_line1": "1 55974U 23039B   25342.84041979  .00021163  00000+0  51295-3 0  9992",
        "tle_line2": "2 55974  97.5044 144.5764 0005179  67.5905 292.5890 15.41083760151463"
      },
      "geometry": {
        "type": "Point",
        "coordinates": [
          -39.11692783263613,
          -28.27099268030463
        ]
      }
    },
    {
      "type": "Feature",
      "properties": {
        "norad_id": 55975,
        "name": "TIANMU-1 05",
        "group": "weather",
        "lat": -64.11867294348335,
        "lon": -50.33535796980916,
        "alt_km": 453.98056716078554,
        "timestamp": "2025-12-09T04:51:47.151786+00:00",
        "meta_object_name": "TIANMU-1 05",
        "meta_object_id": "2023-039C",
        "meta_epoch": "2025-12-08T20:00:32.527584",
        "meta_mean_motion": 15.4070716,
        "meta_eccentricity": 0.0004375,
        "meta_inclination": 97.509,
        "meta_ra_of_asc_node": 145.0616,
        "meta_arg_of_pericenter": 88.6368,
        "meta_mean_anomaly": 271.538,
        "meta_ephemeris_type": 0,
        "meta_classification_type": "U",
        "meta_norad_cat_id": 55975,
        "meta_element_set_no": 999,
        "meta_rev_at_epoch": 15144,
        "meta_bstar": 0.00051255,
        "meta_mean_motion_dot": 0.00020881,
        "meta_mean_motion_ddot": 0,
        "tle_line1": "1 55975U 23039C   25342.83370981  .00020881  00000+0  51255-3 0  9992",
        "tle_line2": "2 55975  97.5090 145.0616 0004375  88.6368 271.5380 15.40707160151446"
      },
      "geometry": {
        "type": "Point",
        "coordinates": [
          -50.33535796980916,
          -64.11867294348335
        ]
      }
    },
    {
      "type": "Feature",
      "properties": {
        "norad_id": 55976,
        "name": "TIANMU-1 06",
        "group": "weather",
        "lat": -15.696810448141475,
        "lon": -36.22186220920229,
        "alt_km": 448.85215945750224,
        "timestamp": "2025-12-09T04:51:47.151796+00:00",
        "meta_object_name": "TIANMU-1 06",
        "meta_object_id": "2023-039D",
        "meta_epoch": "2025-12-08T20:13:31.577376",
        "meta_mean_motion": 15.41136287,
        "meta_eccentricity": 0.0004691,
        "meta_inclination": 97.5101,
        "meta_ra_of_asc_node": 145.5329,
        "meta_arg_of_pericenter": 84.2319,
        "meta_mean_anomaly": 275.9462,
        "meta_ephemeris_type": 0,
        "meta_classification_type": "U",
        "meta_norad_cat_id": 55976,
        "meta_element_set_no": 999,
        "meta_rev_at_epoch": 15146,
        "meta_bstar": 0.00051183,
        "meta_mean_motion_dot": 0.00021152,
        "meta_mean_motion_ddot": 0,
        "tle_line1": "1 55976U 23039D   25342.84272659  .00021152  00000+0  51183-3 0  9999",
        "tle_line2": "2 55976  97.5101 145.5329 0004691  84.2319 275.9462 15.41136287151463"
      },
      "geometry": {
        "type": "Point",
        "coordinates": [
          -36.22186220920229,
          -15.696810448141475
        ]
      }
    },
    {
      "type": "Feature",
      "properties": {
        "norad_id": 56232,
        "name": "FENGYUN 3G",
        "group": "weather",
        "lat": 49.966744117065666,
        "lon": -23.04662221596239,
        "alt_km": 395.2221421809063,
        "timestamp": "2025-12-09T04:51:47.151806+00:00",
        "meta_object_name": "FENGYUN 3G",
        "meta_object_id": "2023-055A",
        "meta_epoch": "2025-12-08T20:45:16.542720",
        "meta_mean_motion": 15.53294978,
        "meta_eccentricity": 0.0009245,
        "meta_inclination": 49.9937,
        "meta_ra_of_asc_node": 247.4467,
        "meta_arg_of_pericenter": 130.1186,
        "meta_mean_anomaly": 230.0593,
        "meta_ephemeris_type": 0,
        "meta_classification_type": "U",
        "meta_norad_cat_id": 56232,
        "meta_element_set_no": 999,
        "meta_rev_at_epoch": 15042,
        "meta_bstar": 0.00061782,
        "meta_mean_motion_dot": 0.00039524,
        "meta_mean_motion_ddot": 0,
        "tle_line1": "1 56232U 23055A   25342.86477480  .00039524  00000+0  61782-3 0  9992",
        "tle_line2": "2 56232  49.9937 247.4467 0009245 130.1186 230.0593 15.53294978150422"
      },
      "geometry": {
        "type": "Point",
        "coordinates": [
          -23.04662221596239,
          49.966744117065666
        ]
      }
    },
    {
      "type": "Feature",
      "properties": {
        "norad_id": 57166,
        "name": "METEOR-M2 3",
        "group": "weather",
        "lat": 54.39402474876094,
        "lon": -130.9397574787787,
        "alt_km": 807.4127172393328,
        "timestamp": "2025-12-09T04:51:47.151816+00:00",
        "meta_object_name": "METEOR-M2 3",
        "meta_object_id": "2023-091A",
        "meta_epoch": "2025-12-08T19:50:55.032576",
        "meta_mean_motion": 14.24025445,
        "meta_eccentricity": 0.0004132,
        "meta_inclination": 98.6384,
        "meta_ra_of_asc_node": 36.4346,
        "meta_arg_of_pericenter": 19.5978,
        "meta_mean_anomaly": 340.5359,
        "meta_ephemeris_type": 0,
        "meta_classification_type": "U",
        "meta_norad_cat_id": 57166,
        "meta_element_set_no": 999,
        "meta_rev_at_epoch": 12742,
        "meta_bstar": 4.2182e-05,
        "meta_mean_motion_dot": 5.3e-07,
        "meta_mean_motion_ddot": 0,
        "tle_line1": "1 57166U 23091A   25342.82702584  .00000053  00000+0  42182-4 0  9990",
        "tle_line2": "2 57166  98.6384  36.4346 0004132  19.5978 340.5359 14.24025445127426"
      },
      "geometry": {
        "type": "Point",
        "coordinates": [
          -130.9397574787787,
          54.39402474876094
        ]
      }
    },
    {
      "type": "Feature",
      "properties": {
        "norad_id": 57399,
        "name": "TIANMU-1 07",
        "group": "weather",
        "lat": 68.25689662999905,
        "lon": 14.414259242633811,
        "alt_km": 471.5728452974945,
        "timestamp": "2025-12-09T04:51:47.151826+00:00",
        "meta_object_name": "TIANMU-1 07",
        "meta_object_id": "2023-101A",
        "meta_epoch": "2025-12-08T20:42:06.752160",
        "meta_mean_motion": 15.27986697,
        "meta_eccentricity": 0.0005644,
        "meta_inclination": 97.2876,
        "meta_ra_of_asc_node": 32.7978,
        "meta_arg_of_pericenter": 91.2701,
        "meta_mean_anomaly": 268.9185,
        "meta_ephemeris_type": 0,
        "meta_classification_type": "U",
        "meta_norad_cat_id": 57399,
        "meta_element_set_no": 999,
        "meta_rev_at_epoch": 13256,
        "meta_bstar": 0.00040718,
        "meta_mean_motion_dot": 0.00011055,
        "meta_mean_motion_ddot": 0,
        "tle_line1": "1 57399U 23101A   25342.86257815  .00011055  00000+0  40718-3 0  9992",
        "tle_line2": "2 57399  97.2876  32.7978 0005644  91.2701 268.9185 15.27986697132565"
      },
      "geometry": {
        "type": "Point",
        "coordinates": [
          14.414259242633811,
          68.25689662999905
        ]
      }
    }
  ]
}